ORBCOMM FM116           
1 41189U 15081L   25138.59309487  .00000995  00000+0  25050-3 0  9999
2 41189  47.0034 335.3465 0002026   7.8524 352.2393 14.58124994501402
CHUBUSAT-2              
1 41338U 16012B   25137.87058102  .00007429  00000+0  37669-3 0  9993
2 41338  31.0001  24.7230 0010159  12.2490 347.8396 15.15501838508299
CHUBUSAT-3              
1 41339U 16012C   25138.36462474  .00005992  00000+0  31573-3 0  9991
2 41339  31.0070  23.4849 0010260  15.9812 344.1150 15.14045471508315
HORYU-4                 
1 41340U 16012D   25137.73997338  .00030917  00000+0  85154-3 0  9994
2 41340  30.9971 285.4254 0006596 171.2942 188.7818 15.35909569509271
ZIYUAN 3-2 (ZY 3-2)     
1 41556U 16033A   25138.47800742  .00008182  00000+0  37020-3 0  9998
2 41556  97.4190 215.8416 0007045 238.4199 121.6350 15.21143979497978
CARTOSAT-2C             
1 41599U 16040A   25138.53576590  .00006176  00000+0  29526-3 0  9994
2 41599  97.4232 199.0754 0012690  72.7724 287.4899 15.19292886493799
LAPAN-A3                
1 41603U 16040E   25138.52242401  .00004022  00000+0  14204-3 0  9995
2 41603  97.1376 143.9981 0010760 358.9446   1.1770 15.29709791494415
BIROS                   
1 41604U 16040F   25138.55744428  .00034437  00000+0  41297-3 0  9990
2 41604  97.0878 167.4435 0003526 234.8008 125.2920 15.60845110496064
M3MSAT                  
1 41605U 16040G   25138.01127099  .00048354  00000+0  56612-3 0  9991
2 41605  97.0826 163.9189 0003023 257.6704 102.4216 15.61407557495797
GAOFEN-3                
1 41727U 16049A   25138.53115393  .00000078  00000+0  37010-4 0  9999
2 41727  98.4036 147.2248 0000871 101.3452 258.7836 14.42151995461756
QSS (MOZI)              
1 41731U 16051A   25138.51100005  .00041406  00000+0  68207-3 0  9990
2 41731  97.3001  57.9586 0010379  87.3345 272.9096 15.52155402488441
PRATHAM                 
1 41783U 16059A   25138.53911126  .00001076  00000+0  20158-3 0  9993
2 41783  97.8242 148.2458 0032646  37.4391 322.9079 14.66376925461661
ALSAT 1N                
1 41789U 16059G   25138.54687540  .00001227  00000+0  21961-3 0  9991
2 41789  97.8057 154.7157 0026660  12.7596 347.4279 14.68322739462077
CAS-2T & KS-1Q          
1 41847U 16066G   25138.22193986  .00001191  00000+0  17979-3 0  9999
2 41847  98.4203 212.8778 0345198 246.0659 110.4023 14.43415946447792
YUNHAI-1 01             
1 41857U 16068A   25138.50488458  .00000475  00000+0  19043-3 0  9992
2 41857  98.5904 148.0240 0008562 100.6385 259.5763 14.32766818445315
RESOURCESAT-2A          
1 41877U 16074A   25138.50757744  .00000189  00000+0  10582-3 0  9999
2 41877  98.6059 210.5107 0002346  94.0546 266.0900 14.21672871438237
TANSAT                  
1 41898U 16081A   25138.49780463  .00000674  00000+0  15202-3 0  9995
2 41898  98.5110 122.7851 0022004  88.3629 272.0091 14.59531736447040
JILIN-1 03              
1 41914U 17002B   25138.55291463  .00011258  00000+0  37795-3 0  9993
2 41914  97.2016 149.3232 0008693 140.7417 219.4456 15.30985202461287
KAIDUN 1                
1 41915U 17002C   25138.52974940  .00061117  00000+0  77632-3 0  9992
2 41915  97.1567 167.1983 0005972 112.0031 248.1861 15.59195374462543
CARTOSAT-2D             
1 41948U 17008A   25138.17312345  .00006855  00000+0  32852-3 0  9993
2 41948  97.4624 198.4384 0005961 170.8396 189.2948 15.19226412457608
ZHUHAI-1 02 (CAS-4B)    
1 42759U 17034B   25138.34222393  .00072941  00000+0  84912-3 0  9998
2 42759  43.0074  94.1451 0018282 139.4786 220.7442 15.60573544439120
ZHUHAI-1 01 (CAS-4A)    
1 42761U 17034D   25138.32816425  .00075737  00000+0  84442-3 0  9998
2 42761  43.0112  91.6079 0019610 143.7689 216.4507 15.61643211439146
CARTOSAT-2E             
1 42767U 17036C   25138.51749387  .00006680  00000+0  32000-3 0  9993
2 42767  97.4791 198.4117 0002887 213.9430 146.1620 15.19262462438220
D-SAT                   
1 42794U 17036AF  25138.37318428  .00009762  00000+0  54473-3 0  9997
2 42794  97.5138 116.6902 0096070  84.2789 276.9384 15.09819555431179
IRIDIUM 113             
1 42803U 17039A   25137.72262787  .00000026  00000+0  21625-5 0  9994
2 42803  86.3949 127.4911 0002065  89.4539 270.6893 14.34217330414501
NORSAT 2                
1 42828U 17042D   25138.46215318  .00010304  00000+0  59813-3 0  9993
2 42828  97.3853 316.6947 0011199 352.3024   7.8033 15.12266298427889
TECHNOSAT               
1 42829U 17042E   25138.52102573  .00003766  00000+0  29423-3 0  9997
2 42829  97.3935 308.2884 0013742   0.9099 359.2149 15.01600344427415
FLYING LAPTOP           
1 42831U 17042G   25138.48632930  .00003449  00000+0  29136-3 0  9999
2 42831  97.4061 307.1871 0012912  36.1625 324.0469 14.98652379427298
WNISAT 1R               
1 42835U 17042L   25138.45635737  .00003228  00000+0  27105-3 0  9997
2 42835  97.4031 307.0875 0011102  25.8175 334.3600 14.98945821427329
LEMUR-2-GREENBERG       
1 42837U 17042N   25137.50444769  .00014894  00000+0  73848-3 0  9993
2 42837  97.3680 319.6563 0010228 323.4911  36.5624 15.17783918428121
LEMUR-2-FURIAUS         
1 42840U 17042R   25137.96908455  .00013878  00000+0  71758-3 0  9993
2 42840  97.3675 319.1854 0010059  20.5208 339.6427 15.16329136428083
CORVUS BC2              
1 42846U 17042X   25138.47156436  .00004367  00000+0  32973-3 0  9999
2 42846  97.3746 312.1277 0014928  30.3099 329.8987 15.02806234427711
CORVUS BC1              
1 42847U 17042Y   25137.92699430  .00004046  00000+0  30415-3 0  9998
2 42847  97.3767 312.1263 0012949   8.5091 351.6352 15.03037950427654
VRSS-2                  
1 42954U 17060A   25138.47940351  .00001151  00000+0  15749-3 0  9996
2 42954  97.7034 187.9421 0016104 312.9572  47.0289 14.80262715410044
MOHAMMED VI-A           
1 43005U 17070A   25138.54628782  .00000997  00000+0  14845-3 0  9997
2 43005  97.9544 211.5338 0001240  99.4456 260.6894 14.77052956405728
FENGYUN 3D              
1 43010U 17072A   25138.47144892  .00000129  00000+0  82953-4 0  9995
2 43010  98.9609 102.0264 0002621  93.3086 266.8390 14.19623901388982
CZ-4C R/B               
1 43012U 17072C   25137.47906756  .00000464  00000+0  10205-3 0  9993
2 43012  98.5737 227.9125 0122299 290.6235  68.1882 14.58273143398956
NOAA 20 (JPSS-1)        
1 43013U 17073A   25138.49538951  .00000125  00000+0  80189-4 0  9999
2 43013  98.7408  77.3567 0001582  41.4122 318.7174 14.19537887388478
MIRATA                  
1 43015U 17073C   25138.24971114  .00069002  00000+0  12137-2 0  9991
2 43015  97.5418  32.1399 0087119 164.9657 195.4213 15.46024107407354
MAKERSAT 0              
1 43016U 17073D   25137.62608165  .00017155  00000+0  70035-3 0  9990
2 43016  97.5214  16.0422 0147504 219.2074 139.8401 15.14962360406255
RADFXSAT (FOX-1B)       
1 43017U 17073E   25138.44589279  .00009144  00000+0  47397-3 0  9990
2 43017  97.5288   9.7816 0172190 241.7639 116.6112 15.04392069405881
EAGLESAT 1              
1 43018U 17073F   25138.22636549  .00061494  00000+0  11984-2 0  9998
2 43018  97.5420  31.1126 0092247 172.8034 187.4563 15.42727419407050
JILIN-1 04              
1 43022U 17074A   25138.51487887  .00010087  00000+0  33395-3 0  9998
2 43022  97.4763 236.4958 0006065 155.5101 204.6429 15.31498744413664
JILIN-1 05              
1 43023U 17074B   25138.51345085  .00006632  00000+0  24412-3 0  9993
2 43023  97.4794 236.3972 0005997 172.9006 187.2320 15.28178043413629
JILIN-1 06              
1 43024U 17074C   25138.50870126  .00009327  00000+0  35605-3 0  9992
2 43024  97.4761 233.9402 0007874 188.1813 171.9298 15.26844579413475
IRIDIUM 116             
1 43072U 17083C   25138.46471350  .00000004  00000+0 -55354-5 0  9995
2 43072  86.3946 127.0339 0002466  85.9342 274.2136 14.34217486387595
IRIDIUM 130             
1 43073U 17083D   25138.50276900 -.00000004  00000+0 -85420-5 0  9993
2 43073  86.3956 127.2549 0002588  92.0032 268.1460 14.34217451387541
LKW-2                   
1 43080U 17084A   25138.53580279  .00007436  00000+0  31370-3 0  9999
2 43080  97.1728 191.5527 0002953 176.9708 183.1548 15.23565108411572
SUPERVIEW-1 03          
1 43099U 18002A   25138.49113107  .00015236  00000+0  56146-3 0  9992
2 43099  97.3411 222.3950 0064182 148.0354 212.4803 15.25936616407938
CARTOSAT-2F             
1 43111U 18004A   25138.48634252  .00006306  77435-8  29973-3 0  9998
2 43111  97.4551 199.0843 0002205 163.0986 197.0322 15.19257217387102
CARBONITE 2             
1 43115U 18004E   25137.20304171  .04606220  23996-5  59053-3 0  9992
2 43115  97.1894 221.7544 0010900 254.1267 105.8829 16.35734082410069
LKW-3                   
1 43146U 18006A   25138.57103458  .00010212  00000+0  40170-3 0  9995
2 43146  97.6145 282.9669 0002366 248.6211 111.4774 15.25849307408365
ASNARO-2                
1 43152U 18007A   25138.55787161  .00013164  00000+0  57137-3 0  9990
2 43152  97.4038 146.4870 0001763  98.0846 262.0590 15.22453462407379
JILIN-1 07              
1 43159U 18008E   25138.51113228  .00008238  00000+0  30797-3 0  9990
2 43159  97.2082 165.3100 0010536  39.7034 320.4975 15.27537593404611
JILIN-1 08              
1 43160U 18008F   25138.53220879  .00008206  00000+0  31190-3 0  9998
2 43160  97.2096 164.9327 0008378  54.7804 305.4219 15.27006847404591
LEMUR-2-URAMCHANSOL     
1 43183U 18014D   25138.52030128  .00386396  00000+0  15460-2 0  9995
2 43183  97.5085  59.2069 0005686 134.0985 226.0754 15.85560748400370
LEMUR-2-KADI            
1 43184U 18014E   25138.49187072  .00023282  00000+0  70361-3 0  9997
2 43184  97.5171  48.6039 0005277 222.7091 137.3742 15.34224833399807
S-NET D                 
1 43186U 18014G   25138.19219512  .00006501  00000+0  38622-3 0  9990
2 43186  97.5642  41.3284 0007618 310.6836  49.3732 15.11611763398996
S-NET B                 
1 43187U 18014H   25137.66771964  .00007087  00000+0  42090-3 0  9990
2 43187  97.5651  40.7802 0008297 306.0254  54.0206 15.11586879398913
